{
  "type": "FeatureCollection",
  "features": [
    {
      "type": "Feature",
      "properties": {
        "norad_id": 15362,
        "name": "NOVA 3",
        "group": "nnss",
        "lat": -0.9716868619550308,
        "lon": -99.35122394247486,
        "alt_km": 1188.3223751213245,
        "timestamp": "2025-12-22T14:45:57.671096+00:00",
        "meta_object_name": "NOVA 3",
        "meta_object_id": "1984-110A",
        "meta_epoch": "2025-12-22T06:53:41.383392",
        "meta_mean_motion": 13.23045723,
        "meta_eccentricity": 0.00299536,
        "meta_inclination": 90.1219,
        "meta_ra_of_asc_node": 80.647,
        "meta_arg_of_pericenter": 304.4624,
        "meta_mean_anomaly": 115.4974,
        "meta_ephemeris_type": 0,
        "meta_classification_type": "U",
        "meta_norad_cat_id": 15362,
        "meta_element_set_no": 999,
        "meta_rev_at_epoch": 98825,
        "meta_bstar": 0.0002233324,
        "meta_mean_motion_dot": 1.02e-06,
        "meta_mean_motion_ddot": 0,
        "tle_line1": "1 15362U 84110A   25356.28728453  .00000102  00000+0  22333-3 0  9999",
        "tle_line2": "2 15362  90.1219  80.6470 0029953 304.4624 115.4974 13.23045723988250"
      },
      "geometry": {
        "type": "Point",
        "coordinates": [
          -99.35122394247486,
          -0.9716868619550308
        ]
      }
    },
    {
      "type": "Feature",
      "properties": {
        "norad_id": 15935,
        "name": "OSCAR 30",
        "group": "nnss",
        "lat": 3.0033944758199955,
        "lon": 99.99993007686608,
        "alt_km": 1049.088265186615,
        "timestamp": "2025-12-22T14:45:57.671106+00:00",
        "meta_object_name": "OSCAR 30",
        "meta_object_id": "1985-066A",
        "meta_epoch": "2025-12-22T05:54:10.715040",
        "meta_mean_motion": 13.36079774,
        "meta_eccentricity": 0.01690798,
        "meta_inclination": 90.1654,
        "meta_ra_of_asc_node": 100.0026,
        "meta_arg_of_pericenter": 57.3573,
        "meta_mean_anomaly": 332.0824,
        "meta_ephemeris_type": 0,
        "meta_classification_type": "U",
        "meta_norad_cat_id": 15935,
        "meta_element_set_no": 999,
        "meta_rev_at_epoch": 96580,
        "meta_bstar": 0.00017103035,
        "meta_mean_motion_dot": 1.05e-06,
        "meta_mean_motion_ddot": 0,
        "tle_line1": "1 15935U 85066A   25356.24595735  .00000105  00000+0  17103-3 0  9999",
        "tle_line2": "2 15935  90.1654 100.0026 0169079  57.3573 332.0824 13.36079774965808"
      },
      "geometry": {
        "type": "Point",
        "coordinates": [
          99.99993007686608,
          3.0033944758199955
        ]
      }
    },
    {
      "type": "Feature",
      "properties": {
        "norad_id": 15936,
        "name": "OSCAR 24",
        "group": "nnss",
        "lat": 75.32786388022768,
        "lon": 91.7956004958412,
        "alt_km": 992.6489987928944,
        "timestamp": "2025-12-22T14:45:57.671117+00:00",
        "meta_object_name": "OSCAR 24",
        "meta_object_id": "1985-066B",
        "meta_epoch": "2025-12-22T05:41:31.379136",
        "meta_mean_motion": 13.359371,
        "meta_eccentricity": 0.01702147,
        "meta_inclination": 90.1791,
        "meta_ra_of_asc_node": 92.4734,
        "meta_arg_of_pericenter": 63.8209,
        "meta_mean_anomaly": 353.8432,
        "meta_ephemeris_type": 0,
        "meta_classification_type": "U",
        "meta_norad_cat_id": 15936,
        "meta_element_set_no": 999,
        "meta_rev_at_epoch": 96770,
        "meta_bstar": 0.00016124907,
        "meta_mean_motion_dot": 9.9e-07,
        "meta_mean_motion_ddot": 0,
        "tle_line1": "1 15936U 85066B   25356.23716874  .00000099  00000+0  16125-3 0  9993",
        "tle_line2": "2 15936  90.1791  92.4734 0170214  63.8209 353.8432 13.35937100967704"
      },
      "geometry": {
        "type": "Point",
        "coordinates": [
          91.7956004958412,
          75.32786388022768
        ]
      }
    },
    {
      "type": "Feature",
      "properties": {
        "norad_id": 17070,
        "name": "POLAR BEAR",
        "group": "nnss",
        "lat": -47.18462955896801,
        "lon": 3.791762997471828,
        "alt_km": 1009.5596785716325,
        "timestamp": "2025-12-22T14:45:57.671127+00:00",
        "meta_object_name": "POLAR BEAR",
        "meta_object_id": "1986-088A",
        "meta_epoch": "2025-12-22T07:31:04.531296",
        "meta_mean_motion": 13.75252766,
        "meta_eccentricity": 0.00412923,
        "meta_inclination": 89.6171,
        "meta_ra_of_asc_node": 183.3904,
        "meta_arg_of_pericenter": 91.7076,
        "meta_mean_anomaly": 80.7829,
        "meta_ephemeris_type": 0,
        "meta_classification_type": "U",
        "meta_norad_cat_id": 17070,
        "meta_element_set_no": 999,
        "meta_rev_at_epoch": 96110,
        "meta_bstar": 9.9847475e-05,
        "meta_mean_motion_dot": 1.08e-06,
        "meta_mean_motion_ddot": 0,
        "tle_line1": "1 17070U 86088A   25356.31324689  .00000108  00000+0  99847-4 0  9991",
        "tle_line2": "2 17070  89.6171 183.3904 0041292  91.7076  80.7829 13.75252766961100"
      },
      "geometry": {
        "type": "Point",
        "coordinates": [
          3.791762997471828,
          -47.18462955896801
        ]
      }
    },
    {
      "type": "Feature",
      "properties": {
        "norad_id": 18361,
        "name": "OSCAR 27",
        "group": "nnss",
        "lat": 54.11283164761152,
        "lon": -99.84139467220515,
        "alt_km": 1058.1978434331868,
        "timestamp": "2025-12-22T14:45:57.671138+00:00",
        "meta_object_name": "OSCAR 27",
        "meta_object_id": "1987-080A",
        "meta_epoch": "2025-12-22T03:25:18.934464",
        "meta_mean_motion": 13.44908544,
        "meta_eccentricity": 0.01036926,
        "meta_inclination": 90.3738,
        "meta_ra_of_asc_node": 79.624,
        "meta_arg_of_pericenter": 196.6975,
        "meta_mean_anomaly": 163.075,
        "meta_ephemeris_type": 0,
        "meta_classification_type": "U",
        "meta_norad_cat_id": 18361,
        "meta_element_set_no": 999,
        "meta_rev_at_epoch": 87683,
        "meta_bstar": 0.00017610414,
        "meta_mean_motion_dot": 1.15e-06,
        "meta_mean_motion_ddot": 0,
        "tle_line1": "1 18361U 87080A   25356.14258026  .00000115  00000+0  17610-3 0  9995",
        "tle_line2": "2 18361  90.3738  79.6240 0103692 196.6975 163.0750 13.44908544876839"
      },
      "geometry": {
        "type": "Point",
        "coordinates": [
          -99.84139467220515,
          54.11283164761152
        ]
      }
    },
    {
      "type": "Feature",
      "properties": {
        "norad_id": 18362,
        "name": "OSCAR 29",
        "group": "nnss",
        "lat": 58.27922343511584,
        "lon": -99.29183163366457,
        "alt_km": 1095.7851720871759,
        "timestamp": "2025-12-22T14:45:57.671149+00:00",
        "meta_object_name": "OSCAR 29",
        "meta_object_id": "1987-080B",
        "meta_epoch": "2025-12-22T05:21:48.494016",
        "meta_mean_motion": 13.44450163,
        "meta_eccentricity": 0.01045285,
        "meta_inclination": 90.3749,
        "meta_ra_of_asc_node": 80.0866,
        "meta_arg_of_pericenter": 219.69,
        "meta_mean_anomaly": 168.0965,
        "meta_ephemeris_type": 0,
        "meta_classification_type": "U",
        "meta_norad_cat_id": 18362,
        "meta_element_set_no": 999,
        "meta_rev_at_epoch": 87637,
        "meta_bstar": 0.00018133307,
        "meta_mean_motion_dot": 1.17e-06,
        "meta_mean_motion_ddot": 0,
        "tle_line1": "1 18362U 87080B   25356.22347794  .00000117  00000+0  18133-3 0  9999",
        "tle_line2": "2 18362  90.3749  80.0866 0104528 219.6900 168.0965 13.44450163876376"
      },
      "geometry": {
        "type": "Point",
        "coordinates": [
          -99.29183163366457,
          58.27922343511584
        ]
      }
    },
    {
      "type": "Feature",
      "properties": {
        "norad_id": 19070,
        "name": "OSCAR 23",
        "group": "nnss",
        "lat": 24.82972411830771,
        "lon": 16.55014294627696,
        "alt_km": 1240.0929131178127,
        "timestamp": "2025-12-22T14:45:57.671160+00:00",
        "meta_object_name": "OSCAR 23",
        "meta_object_id": "1988-033A",
        "meta_epoch": "2025-12-22T02:04:42.087936",
        "meta_mean_motion": 13.27788655,
        "meta_eccentricity": 0.01902795,
        "meta_inclination": 90.3203,
        "meta_ra_of_asc_node": 16.682,
        "meta_arg_of_pericenter": 153.9822,
        "meta_mean_anomaly": 227.1802,
        "meta_ephemeris_type": 0,
        "meta_classification_type": "U",
        "meta_norad_cat_id": 19070,
        "meta_element_set_no": 999,
        "meta_rev_at_epoch": 82377,
        "meta_bstar": 0.00012926028,
        "meta_mean_motion_dot": 7.4e-07,
        "meta_mean_motion_ddot": 0,
        "tle_line1": "1 19070U 88033A   25356.08659824  .00000074  00000+0  12926-3 0  9995",
        "tle_line2": "2 19070  90.3203  16.6820 0190279 153.9822 227.1802 13.27788655823778"
      },
      "geometry": {
        "type": "Point",
        "coordinates": [
          16.55014294627696,
          24.82972411830771
        ]
      }
    }
  ]
}